{
  "type": "FeatureCollection",
  "features": [
    {
      "type": "Feature",
      "properties": {
        "norad_id": 34340,
        "name": "COSMOS 2251 DEB",
        "group": "cosmos-2251-debris",
        "lat": -29.842274786065584,
        "lon": -61.64321098584434,
        "alt_km": 952.802005548213,
        "timestamp": "2025-12-12T20:43:07.429824+00:00",
        "meta_object_name": "COSMOS 2251 DEB",
        "meta_object_id": "1993-036PN",
        "meta_epoch": "2025-12-12T07:30:08.360928",
        "meta_mean_motion": 13.79567959,
        "meta_eccentricity": 0.02825705,
        "meta_inclination": 74.0793,
        "meta_ra_of_asc_node": 308.7004,
        "meta_arg_of_pericenter": 56.5863,
        "meta_mean_anomaly": 61.6831,
        "meta_ephemeris_type": 0,
        "meta_classification_type": "U",
        "meta_norad_cat_id": 34340,
        "meta_element_set_no": 999,
        "meta_rev_at_epoch": 84262,
        "meta_bstar": 0.0020466181,
        "meta_mean_motion_dot": 2.826e-05,
        "meta_mean_motion_ddot": 0,
        "tle_line1": "1 34340U 93036PN  25346.31259677  .00002826  00000+0  20466-2 0  9992",
        "tle_line2": "2 34340  74.0793 308.7004 0282570  56.5863  61.6831 13.79567959842623"
      },
      "geometry": {
        "type": "Point",
        "coordinates": [
          -61.64321098584434,
          -29.842274786065584
        ]
      }
    },
    {
      "type": "Feature",
      "properties": {
        "norad_id": 34343,
        "name": "COSMOS 2251 DEB",
        "group": "cosmos-2251-debris",
        "lat": 73.37511454860244,
        "lon": 162.99875658650598,
        "alt_km": 652.8501774858723,
        "timestamp": "2025-12-12T20:43:07.429835+00:00",
        "meta_object_name": "COSMOS 2251 DEB",
        "meta_object_id": "1993-036PR",
        "meta_epoch": "2025-12-12T07:33:32.552640",
        "meta_mean_motion": 14.6943285,
        "meta_eccentricity": 0.00233377,
        "meta_inclination": 74.0199,
        "meta_ra_of_asc_node": 90.3778,
        "meta_arg_of_pericenter": 5.5555,
        "meta_mean_anomaly": 60.1729,
        "meta_ephemeris_type": 0,
        "meta_classification_type": "U",
        "meta_norad_cat_id": 34343,
        "meta_element_set_no": 999,
        "meta_rev_at_epoch": 88724,
        "meta_bstar": 0.002392469,
        "meta_mean_motion_dot": 0.00014222,
        "meta_mean_motion_ddot": 0,
        "tle_line1": "1 34343U 93036PR  25346.31496010  .00014222  00000+0  23925-2 0  9995",
        "tle_line2": "2 34343  74.0199  90.3778 0023337   5.5555  60.1729 14.69432850887242"
      },
      "geometry": {
        "type": "Point",
        "coordinates": [
          162.99875658650598,
          73.37511454860244
        ]
      }
    },
    {
      "type": "Feature",
      "properties": {
        "norad_id": 34344,
        "name": "COSMOS 2251 DEB",
        "group": "cosmos-2251-debris",
        "lat": 17.83057666218699,
        "lon": -75.1753812681646,
        "alt_km": 913.1820976962572,
        "timestamp": "2025-12-12T20:43:07.429845+00:00",
        "meta_object_name": "COSMOS 2251 DEB",
        "meta_object_id": "1993-036PS",
        "meta_epoch": "2025-12-11T19:14:49.841664",
        "meta_mean_motion": 14.16396729,
        "meta_eccentricity": 0.01558144,
        "meta_inclination": 73.9782,
        "meta_ra_of_asc_node": 112.0214,
        "meta_arg_of_pericenter": 296.3882,
        "meta_mean_anomaly": 216.6791,
        "meta_ephemeris_type": 0,
        "meta_classification_type": "U",
        "meta_norad_cat_id": 34344,
        "meta_element_set_no": 999,
        "meta_rev_at_epoch": 86083,
        "meta_bstar": 0.0025281982,
        "meta_mean_motion_dot": 5.632e-05,
        "meta_mean_motion_ddot": 0,
        "tle_line1": "1 34344U 93036PS  25345.80196576  .00005632  00000+0  25282-2 0  9996",
        "tle_line2": "2 34344  73.9782 112.0214 0155814 296.3882 216.6791 14.16396729860834"
      },
      "geometry": {
        "type": "Point",
        "coordinates": [
          -75.1753812681646,
          17.83057666218699
        ]
      }
    },
    {
      "type": "Feature",
      "properties": {
        "norad_id": 34346,
        "name": "COSMOS 2251 DEB",
        "group": "cosmos-2251-debris",
        "lat": -73.96339378129716,
        "lon": -141.08467868466187,
        "alt_km": 1012.2747473893951,
        "timestamp": "2025-12-12T20:43:07.429856+00:00",
        "meta_object_name": "COSMOS 2251 DEB",
        "meta_object_id": "1993-036PU",
        "meta_epoch": "2025-12-11T23:08:22.979040",
        "meta_mean_motion": 13.99688406,
        "meta_eccentricity": 0.0206215,
        "meta_inclination": 73.9954,
        "meta_ra_of_asc_node": 313.5919,
        "meta_arg_of_pericenter": 132.6799,
        "meta_mean_anomaly": 286.03,
        "meta_ephemeris_type": 0,
        "meta_classification_type": "U",
        "meta_norad_cat_id": 34346,
        "meta_element_set_no": 999,
        "meta_rev_at_epoch": 85399,
        "meta_bstar": 0.0014434,
        "meta_mean_motion_dot": 2.514e-05,
        "meta_mean_motion_ddot": 0,
        "tle_line1": "1 34346U 93036PU  25345.96415485  .00002514  00000+0  14434-2 0  9991",
        "tle_line2": "2 34346  73.9954 313.5919 0206215 132.6799 286.0300 13.99688406853990"
      },
      "geometry": {
        "type": "Point",
        "coordinates": [
          -141.08467868466187,
          -73.96339378129716
        ]
      }
    },
    {
      "type": "Feature",
      "properties": {
        "norad_id": 34383,
        "name": "COSMOS 2251 DEB",
        "group": "cosmos-2251-debris",
        "lat": 25.049317111267325,
        "lon": 109.75232475283944,
        "alt_km": 538.7648266581336,
        "timestamp": "2025-12-12T20:43:07.429867+00:00",
        "meta_object_name": "COSMOS 2251 DEB",
        "meta_object_id": "1993-036PY",
        "meta_epoch": "2025-12-12T07:51:24.539040",
        "meta_mean_motion": 15.08950534,
        "meta_eccentricity": 0.00023212,
        "meta_inclination": 74.0222,
        "meta_ra_of_asc_node": 298.5527,
        "meta_arg_of_pericenter": 42.7371,
        "meta_mean_anomaly": 80.986,
        "meta_ephemeris_type": 0,
        "meta_classification_type": "U",
        "meta_norad_cat_id": 34383,
        "meta_element_set_no": 999,
        "meta_rev_at_epoch": 89107,
        "meta_bstar": 0.0042291797,
        "meta_mean_motion_dot": 0.00067394,
        "meta_mean_motion_ddot": 0,
        "tle_line1": "1 34383U 93036PY  25346.32736735  .00067394  00000+0  42292-2 0  9997",
        "tle_line2": "2 34383  74.0222 298.5527 0002321  42.7371  80.9860 15.08950534891076"
      },
      "geometry": {
        "type": "Point",
        "coordinates": [
          109.75232475283944,
          25.049317111267325
        ]
      }
    },
    {
      "type": "Feature",
      "properties": {
        "norad_id": 34387,
        "name": "COSMOS 2251 DEB",
        "group": "cosmos-2251-debris",
        "lat": 57.65654999769016,
        "lon": -121.46494766320676,
        "alt_km": 750.7024186236813,
        "timestamp": "2025-12-12T20:43:07.429950+00:00",
        "meta_object_name": "COSMOS 2251 DEB",
        "meta_object_id": "1993-036QC",
        "meta_epoch": "2025-12-12T02:52:38.968608",
        "meta_mean_motion": 14.43818415,
        "meta_eccentricity": 0.00387761,
        "meta_inclination": 74.0394,
        "meta_ra_of_asc_node": 213.0478,
        "meta_arg_of_pericenter": 310.1156,
        "meta_mean_anomaly": 208.6562,
        "meta_ephemeris_type": 0,
        "meta_classification_type": "U",
        "meta_norad_cat_id": 34387,
        "meta_element_set_no": 999,
        "meta_rev_at_epoch": 88172,
        "meta_bstar": 0.0004343424,
        "meta_mean_motion_dot": 1.466e-05,
        "meta_mean_motion_ddot": 0,
        "tle_line1": "1 34387U 93036QC  25346.11989547  .00001466  00000+0  43434-3 0  9997",
        "tle_line2": "2 34387  74.0394 213.0478 0038776 310.1156 208.6562 14.43818415881721"
      },
      "geometry": {
        "type": "Point",
        "coordinates": [
          -121.46494766320676,
          57.65654999769016
        ]
      }
    },
    {
      "type": "Feature",
      "properties": {
        "norad_id": 34388,
        "name": "COSMOS 2251 DEB",
        "group": "cosmos-2251-debris",
        "lat": 43.91721095893908,
        "lon": -121.1299176943883,
        "alt_km": 730.7614863056378,
        "timestamp": "2025-12-12T20:43:07.429963+00:00",
        "meta_object_name": "COSMOS 2251 DEB",
        "meta_object_id": "1993-036QD",
        "meta_epoch": "2025-12-12T02:59:05.105760",
        "meta_mean_motion": 14.49360724,
        "meta_eccentricity": 0.00140652,
        "meta_inclination": 74.039,
        "meta_ra_of_asc_node": 224.2589,
        "meta_arg_of_pericenter": 272.5488,
        "meta_mean_anomaly": 239.7098,
        "meta_ephemeris_type": 0,
        "meta_classification_type": "U",
        "meta_norad_cat_id": 34388,
        "meta_element_set_no": 999,
        "meta_rev_at_epoch": 88146,
        "meta_bstar": 0.0010928885,
        "meta_mean_motion_dot": 4.156e-05,
        "meta_mean_motion_ddot": 0,
        "tle_line1": "1 34388U 93036QD  25346.12436465  .00004156  00000+0  10929-2 0  9996",
        "tle_line2": "2 34388  74.0390 224.2589 0014065 272.5488 239.7098 14.49360724881460"
      },
      "geometry": {
        "type": "Point",
        "coordinates": [
          -121.1299176943883,
          43.91721095893908
        ]
      }
    }
  ]
}